GLOBALSTAR M075         
1 37192U 10054E   25281.17799994 -.00000071  00000+0  18343-3 0  9995
2 37192  51.9938 197.5049 0000665  66.5678  79.3452 12.62268420690119
GLOBALSTAR M073         
1 37193U 10054F   25281.02518876 -.00000082  00000+0  12389-3 0  9994
2 37193  52.0037 111.8756 0000836 101.5079  68.9212 12.62263490692089
GLOBALSTAR M083         
1 37739U 11033A   25281.11747590 -.00000103  00000+0  52600-5 0  9991
2 37739  51.9863  60.1670 0000895 108.3321  62.9280 12.62276671661115
GLOBALSTAR M088         
1 37740U 11033B   25281.05580366 -.00000072  00000+0  17772-3 0  9996
2 37740  52.0230 326.1768 0000436  86.8526 282.8283 12.62268528656659
GLOBALSTAR M091         
1 37741U 11033C   25281.07515882 -.00000094  00000+0  52090-4 0  9997
2 37741  51.9995 289.4542 0000543  86.2390 312.3431 12.62260352657448
GLOBALSTAR M085         
1 37742U 11033D   25281.13558567 -.00000099  00000+0  27618-4 0  9995
2 37742  52.0113 240.3412 0000695  79.5018 293.5573 12.62265348657969
GLOBALSTAR M081         
1 37743U 11033E   25281.10226838 -.00000105  00000+0 -87744-5 0  9992
2 37743  51.9945 243.1661 0000465  85.7797  15.3264 12.62268984658109
GLOBALSTAR M089         
1 37744U 11033F   25281.04323659 -.00000079  00000+0  13740-3 0  9997
2 37744  51.9922 197.5521 0000499  49.4228 324.0436 12.62267562658949
